STARLINK-32259          
1 60937U 24155P   26068.46185029 -.00000584  00000+0 -75981-5 0  9992
2 60937  53.1608 130.8932 0001183  80.5241 279.5894 15.30184006 86308
TEVEL2-5                
1 63214U 25052E   26068.96660006  .00021339  00000+0  71765-3 0  9991
2 63214  97.4013 325.3677 0004700  95.3936 264.7842 15.30817434 54919
